STARLINK-31101          
1 58737U 24005K   26068.81140431  .00005893  00000+0  22919-3 0  9995
2 58737  43.0043 218.9452 0001927 280.2239  79.8395 15.26741486120459
FLOCK 4G-3              
1 62639U 25009AG  26068.80174065  .00011494  00000+0  43389-3 0  9993
2 62639  97.4062 151.4068 0001320 293.2042  66.9058 15.27179310 63727
