[{"OBJECT_NAME":"STARLINK-31101","OBJECT_ID":"2024-005K","EPOCH":"2026-03-09T19:28:25.332384","MEAN_MOTION":15.26741486,"ECCENTRICITY":0.0001927,"INCLINATION":43.0043,"RA_OF_ASC_NODE":218.9452,"ARG_OF_PERICENTER":280.2239,"MEAN_ANOMALY":79.8395,"EPHEMERIS_TYPE":0,"CLASSIFICATION_TYPE":"U","NORAD_CAT_ID":58737,"ELEMENT_SET_NO":999,"REV_AT_EPOCH":12045,"BSTAR":0.00022918809,"MEAN_MOTION_DOT":5.893e-5,"MEAN_MOTION_DDOT":0},{"OBJECT_NAME":"FLOCK 4G-3","OBJECT_ID":"2025-009AG","EPOCH":"2026-03-09T19:14:30.392160","MEAN_MOTION":15.2717931,"ECCENTRICITY":0.00013196,"INCLINATION":97.4062,"RA_OF_ASC_NODE":151.4068,"ARG_OF_PERICENTER":293.2042,"MEAN_ANOMALY":66.9058,"EPHEMERIS_TYPE":0,"CLASSIFICATION_TYPE":"U","NORAD_CAT_ID":62639,"ELEMENT_SET_NO":999,"REV_AT_EPOCH":6372,"BSTAR":0.0004338875,"MEAN_MOTION_DOT":0.00011494,"MEAN_MOTION_DDOT":0}]
